OBJECT_NAME,OBJECT_ID,EPOCH,MEAN_MOTION,ECCENTRICITY,INCLINATION,RA_OF_ASC_NODE,ARG_OF_PERICENTER,MEAN_ANOMALY,EPHEMERIS_TYPE,CLASSIFICATION_TYPE,NORAD_CAT_ID,ELEMENT_SET_NO,REV_AT_EPOCH,BSTAR,MEAN_MOTION_DOT,MEAN_MOTION_DDOT
LEMUR-2-FINNIAN,2025-276DX,2026-06-08T17:50:41.392032,15.00271962,.0008577,97.5259,231.0052,114.2544,245.9577,0,U,66782,999,1873,.57464E-3,.7148E-4,0
LEMUR-2-STARLIGHT,2025-276DY,2026-06-08T03:48:02.107872,14.98948334,.00153528,97.5274,230.1048,153.7795,206.4209,0,U,66783,999,2884,.45215688E-3,.5428E-4,0
LEMUR-2-TARTIFLETTE,2025-276DZ,2026-06-08T18:11:13.214112,14.98982216,.0013941,97.5278,230.6893,158.1116,202.0706,0,U,66784,999,2893,.62154E-3,.7489E-4,0
LEMUR-2-VUKASIN,2025-276EA,2026-06-08T18:12:33.461568,15.00275976,.0006276,97.5308,230.9665,144.2035,215.9610,0,U,66785,999,2888,.54306E-3,.675E-4,0
LEMUR-2-HOTSPUR-TOM,2025-276EB,2026-06-08T17:59:34.033344,14.98857232,.0015321,97.5254,230.6654,153.2902,206.9114,0,U,66786,999,2886,.6242E-3,.75E-4,0
LEMUR-2-MYRA,2025-276EC,2026-06-08T17:20:43.377792,15.00131732,.0015567,97.5219,230.8828,169.6410,190.5138,0,U,66787,999,2894,.5824E-3,.7231E-4,0
LEMUR-2 FIKRETDENGIZ,2026-004A,2026-06-08T17:31:35.489568,14.88265193,.0009396,97.8015,158.4187,157.7431,202.4196,0,U,67363,999,2202,.48701E-3,.4449E-4,0
TWILIGHT-1 OBJECT B,2026-004B,2026-06-08T11:34:25.581792,14.87673121,.0009387,97.8059,158.1934,149.5743,210.6020,0,U,67364,999,2199,.2421E-3,.2151E-4,0
LEMUR-2-MARIO-SOUSA,2026-004C,2026-06-08T18:46:19.314336,14.88448267,.0008946,97.7991,158.4664,158.1481,202.0119,0,U,67365,999,2204,.47985E-3,.4402E-4,0
LEMUR-2-WOBLER,2026-004F,2026-06-08T16:57:53.421120,14.88461321,.0008908,97.8040,158.4938,149.6551,210.5183,0,U,67368,999,2203,.42508E-3,.3894E-4,0
LEMUR-2-GRAM-E-SUE,2026-004H,2026-06-08T05:26:29.275872,14.88432151,.0007491,97.7973,157.9220,161.8793,198.2692,0,U,67370,999,2196,.27137E-3,.2464E-4,0
LEMUR-2-KATIE,2026-004AA,2026-06-08T18:15:22.798656,14.89997583,.0004729,97.8037,158.8796,110.2219,249.9508,0,U,67387,999,2205,.5268E-3,.5027E-4,0
LEMUR-2-HCS-BAZUS,2026-004AB,2026-06-08T18:14:05.995104,14.89994072,.0004354,97.8026,158.8607,105.5742,254.5957,0,U,67388,999,2205,.57517E-3,.5493E-4,0
