LEMUR-2-FINNIAN         
1 66782U 25276DX  26159.74353463  .00007148  00000+0  57464-3 0  9997
2 66782  97.5259 231.0052 0008577 114.2544 245.9577 15.00271962 18730
LEMUR-2-STARLIGHT       
1 66783U 25276DY  26159.15835773  .00005428  00000+0  45216-3 0  9993
2 66783  97.5274 230.1048 0015352 153.7795 206.4209 14.98948334 28845
LEMUR-2-TARTIFLETTE     
1 66784U 25276DZ  26159.75779183  .00007489  00000+0  62154-3 0  9991
2 66784  97.5278 230.6893 0013941 158.1116 202.0706 14.98982216 28932
LEMUR-2-VUKASIN         
1 66785U 25276EA  26159.75872062  .00006750  00000+0  54306-3 0  9992
2 66785  97.5308 230.9665 0006276 144.2035 215.9610 15.00275976 28889
LEMUR-2-HOTSPUR-TOM     
1 66786U 25276EB  26159.74969946  .00007500  00000+0  62420-3 0  9990
2 66786  97.5254 230.6654 0015321 153.2902 206.9114 14.98857232 28863
LEMUR-2-MYRA            
1 66787U 25276EC  26159.72272428  .00007231  00000+0  58240-3 0  9997
2 66787  97.5219 230.8828 0015567 169.6410 190.5138 15.00131732 28944
LEMUR-2 FIKRETDENGIZ    
1 67363U 26004A   26159.73027187  .00004449  00000+0  48701-3 0  9998
2 67363  97.8015 158.4187 0009396 157.7431 202.4196 14.88265193 22023
TWILIGHT-1 OBJECT B     
1 67364U 26004B   26159.48224054  .00002151  00000+0  24210-3 0  9990
2 67364  97.8059 158.1934 0009386 149.5743 210.6020 14.87673121 21998
LEMUR-2-MARIO-SOUSA     
1 67365U 26004C   26159.78216799  .00004402  00000+0  47985-3 0  9996
2 67365  97.7991 158.4664 0008946 158.1481 202.0119 14.88448267 22045
LEMUR-2-WOBLER          
1 67368U 26004F   26159.70686830  .00003894  00000+0  42508-3 0  9998
2 67368  97.8040 158.4938 0008908 149.6551 210.5183 14.88461321 22039
LEMUR-2-GRAM-E-SUE      
1 67370U 26004H   26159.22672773  .00002464  00000+0  27137-3 0  9992
2 67370  97.7973 157.9220 0007491 161.8793 198.2692 14.88432151 21961
LEMUR-2-KATIE           
1 67387U 26004AA  26159.76068054  .00005027  00000+0  52680-3 0  9999
2 67387  97.8037 158.8796 0004729 110.2219 249.9508 14.89997583 22058
LEMUR-2-HCS-BAZUS       
1 67388U 26004AB  26159.75979161  .00005493  00000+0  57517-3 0  9990
2 67388  97.8026 158.8607 0004354 105.5742 254.5957 14.89994072 22050
